{"type": "FeatureCollection", "features": [ {"type": "Feature", "properties": {"norad_id": 31955, "name": "FENGYUN 1C DEB", "group": "fengyun-1c-debris", "lat": 77.01907398404089, "lon": 177.30171273736178, "alt_km": 680.2039469317797, "timestamp": "2025-12-11T18:59:46.358642+00:00", "meta": {"OBJECT_NAME": "FENGYUN 1C DEB", "OBJECT_ID": "1999-025CNG", "EPOCH": "2025-12-10T21:35:21.155424", "MEAN_MOTION": 14.63835717, "ECCENTRICITY": 0.0043157, "INCLINATION": 99.2803, "RA_OF_ASC_NODE": 221.4782, "ARG_OF_PERICENTER": 186.6781, "MEAN_ANOMALY": 236.9304, "EPHEMERIS_TYPE": 0, "CLASSIFICATION_TYPE": "U", "NORAD_CAT_ID": 31955, "ELEMENT_SET_NO": 999, "REV_AT_EPOCH": 96530, "BSTAR": 0.0026892, "MEAN_MOTION_DOT": 0.00014199, "MEAN_MOTION_DDOT": 0}, "tle": {"line1": "1 31955U 99025CNG 25344.89955041  .00014199  00000+0  26892-2 0  9999", "line2": "2 31955  99.2803 221.4782 0043157 186.6781 236.9304 14.63835717965304"}}, "geometry": {"type": "Point", "coordinates": [177.30171273736178, 77.01907398404089]}}, {"type": "Feature", "properties": {"norad_id": 31959, "name": "FENGYUN 1C DEB", "group": "fengyun-1c-debris", "lat": -8.687771647602938, "lon": 35.48146603952691, "alt_km": 723.7545884059309, "timestamp": "2025-12-11T18:59:46.358652+00:00", "meta": {"OBJECT_NAME": "FENGYUN 1C DEB", "OBJECT_ID": "1999-025CNL", "EPOCH": "2025-12-07T09:33:05.501376", "MEAN_MOTION": 14.46612171, "ECCENTRICITY": 0.00265605, "INCLINATION": 98.5107, "RA_OF_ASC_NODE": 212.3798, "ARG_OF_PERICENTER": 173.2033, "MEAN_ANOMALY": 186.9524, "EPHEMERIS_TYPE": 0, "CLASSIFICATION_TYPE": "U", "NORAD_CAT_ID": 31959, "ELEMENT_SET_NO": 999, "REV_AT_EPOCH": 64276, "BSTAR": 0.0040582486, "MEAN_MOTION_DOT": 0.0001469, "MEAN_MOTION_DDOT": 0}, "tle": {"line1": "1 31959U 99025CNL 25341.39798034  .00014690  00000+0  40582-2 0  9990", "line2": "2 31959  98.5107 212.3798 0026560 173.2033 186.9524 14.46612171642762"}}, "geometry": {"type": "Point", "coordinates": [35.48146603952691, -8.687771647602938]}}, {"type": "Feature", "properties": {"norad_id": 31964, "name": "FENGYUN 1C DEB", "group": "fengyun-1c-debris", "lat": -69.50949538047499, "lon": 133.56507115585714, "alt_km": 710.9430807462941, "timestamp": "2025-12-11T18:59:46.358663+00:00", "meta": {"OBJECT_NAME": "FENGYUN 1C DEB", "OBJECT_ID": "1999-025CNR", "EPOCH": "2025-12-10T07:05:53.070432", "MEAN_MOTION": 14.58401476, "ECCENTRICITY": 0.0028681, "INCLINATION": 98.699, "RA_OF_ASC_NODE": 107.8143, "ARG_OF_PERICENTER": 39.2547, "MEAN_ANOMALY": 321.0723, "EPHEMERIS_TYPE": 0, "CLASSIFICATION_TYPE": "U", "NORAD_CAT_ID": 31964, "ELEMENT_SET_NO": 999, "REV_AT_EPOCH": 67474, "BSTAR": 0.0041487, "MEAN_MOTION_DOT": 0.00019336, "MEAN_MOTION_DDOT": 0}, "tle": {"line1": "1 31964U 99025CNR 25344.29575313  .00019336  00000+0  41487-2 0  9998", "line2": "2 31964  98.6990 107.8143 0028681  39.2547 321.0723 14.58401476674741"}}, "geometry": {"type": "Point", "coordinates": [133.56507115585714, -69.50949538047499]}}, {"type": "Feature", "properties": {"norad_id": 31966, "name": "FENGYUN 1C DEB", "group": "fengyun-1c-debris", "lat": -54.79905712715372, "lon": -54.71930663280158, "alt_km": 630.6752901998279, "timestamp": "2025-12-11T18:59:46.358672+00:00", "meta": {"OBJECT_NAME": "FENGYUN 1C DEB", "OBJECT_ID": "1999-025CNT", "EPOCH": "2025-12-09T16:49:33.197952", "MEAN_MOTION": 14.67469436, "ECCENTRICITY": 0.00861456, "INCLINATION": 99.0175, "RA_OF_ASC_NODE": 135.9908, "ARG_OF_PERICENTER": 284.2018, "MEAN_ANOMALY": 74.9625, "EPHEMERIS_TYPE": 0, "CLASSIFICATION_TYPE": "U", "NORAD_CAT_ID": 31966, "ELEMENT_SET_NO": 999, "REV_AT_EPOCH": 65698, "BSTAR": 0.0019077332, "MEAN_MOTION_DOT": 0.00011377, "MEAN_MOTION_DDOT": 0}, "tle": {"line1": "1 31966U 99025CNT 25343.70107868  .00011377  00000+0  19077-2 0  9998", "line2": "2 31966  99.0175 135.9908 0086145 284.2018  74.9625 14.67469436656989"}}, "geometry": {"type": "Point", "coordinates": [-54.71930663280158, -54.79905712715372]}}, {"type": "Feature", "properties": {"norad_id": 31972, "name": "FENGYUN 1C DEB", "group": "fengyun-1c-debris", "lat": 56.154966313084195, "lon": -138.5730623417115, "alt_km": 860.3234908877712, "timestamp": "2025-12-11T18:59:46.358682+00:00", "meta": {"OBJECT_NAME": "FENGYUN 1C DEB", "OBJECT_ID": "1999-025CNZ", "EPOCH": "2025-12-10T01:37:01.958592", "MEAN_MOTION": 14.07509402, "ECCENTRICITY": 0.00770193, "INCLINATION": 99.2123, "RA_OF_ASC_NODE": 25.6644, "ARG_OF_PERICENTER": 39.2101, "MEAN_ANOMALY": 351.1467, "EPHEMERIS_TYPE": 0, "CLASSIFICATION_TYPE": "U", "NORAD_CAT_ID": 31972, "ELEMENT_SET_NO": 999, "REV_AT_EPOCH": 94923, "BSTAR": 0.00030874555, "MEAN_MOTION_DOT": 4.88e-06, "MEAN_MOTION_DDOT": 0}, "tle": {"line1": "1 31972U 99025CNZ 25344.06738378  .00000488  00000+0  30875-3 0  9992", "line2": "2 31972  99.2123  25.6644 0077019  39.2101 351.1467 14.07509402949233"}}, "geometry": {"type": "Point", "coordinates": [-138.5730623417115, 56.154966313084195]}}, {"type": "Feature", "properties": {"norad_id": 31974, "name": "FENGYUN 1C DEB", "group": "fengyun-1c-debris", "lat": 23.285535881499694, "lon": -179.40851817647774, "alt_km": 837.0012588830195, "timestamp": "2025-12-11T18:59:46.358692+00:00", "meta": {"OBJECT_NAME": "FENGYUN 1C DEB", "OBJECT_ID": "1999-025CPB", "EPOCH": "2025-12-10T23:47:00.638304", "MEAN_MOTION": 14.29483085, "ECCENTRICITY": 0.00716521, "INCLINATION": 98.3798, "RA_OF_ASC_NODE": 356.1843, "ARG_OF_PERICENTER": 308.0116, "MEAN_ANOMALY": 51.4612, "EPHEMERIS_TYPE": 0, "CLASSIFICATION_TYPE": "U", "NORAD_CAT_ID": 31974, "ELEMENT_SET_NO": 999, "REV_AT_EPOCH": 69397, "BSTAR": 0.0037070157, "MEAN_MOTION_DOT": 9.703e-05, "MEAN_MOTION_DDOT": 0}, "tle": {"line1": "1 31974U 99025CPB 25344.99097961  .00009703  00000+0  37070-2 0  9994", "line2": "2 31974  98.3798 356.1843 0071652 308.0116  51.4612 14.29483085693977"}}, "geometry": {"type": "Point", "coordinates": [-179.40851817647774, 23.285535881499694]}}, {"type": "Feature", "properties": {"norad_id": 31978, "name": "FENGYUN 1C DEB", "group": "fengyun-1c-debris", "lat": 60.75214798044304, "lon": 125.69530594710778, "alt_km": 825.9314693839069, "timestamp": "2025-12-11T18:59:46.358703+00:00", "meta": {"OBJECT_NAME": "FENGYUN 1C DEB", "OBJECT_ID": "1999-025CPF", "EPOCH": "2025-12-08T09:40:24.995712", "MEAN_MOTION": 13.63098344, "ECCENTRICITY": 0.0263392, "INCLINATION": 98.3802, "RA_OF_ASC_NODE": 138.0358, "ARG_OF_PERICENTER": 61.5347, "MEAN_ANOMALY": 301.2062, "EPHEMERIS_TYPE": 0, "CLASSIFICATION_TYPE": "U", "NORAD_CAT_ID": 31978, "ELEMENT_SET_NO": 999, "REV_AT_EPOCH": 91531, "BSTAR": 0.0016862469, "MEAN_MOTION_DOT": 1.637e-05, "MEAN_MOTION_DDOT": 0}, "tle": {"line1": "1 31978U 99025CPF 25342.40306708  .00001637  00000+0  16862-2 0  9998", "line2": "2 31978  98.3802 138.0358 0263392  61.5347 301.2062 13.63098344915313"}}, "geometry": {"type": "Point", "coordinates": [125.69530594710778, 60.75214798044304]}}, {"type": "Feature", "properties": {"norad_id": 31979, "name": "FENGYUN 1C DEB", "group": "fengyun-1c-debris", "lat": -41.822519188394715, "lon": 86.91826233778315, "alt_km": 844.6258385508108, "timestamp": "2025-12-11T18:59:46.358715+00:00", "meta": {"OBJECT_NAME": "FENGYUN 1C DEB", "OBJECT_ID": "1999-025CPG", "EPOCH": "2025-12-10T01:06:33.179904", "MEAN_MOTION": 13.69261173, "ECCENTRICITY": 0.02659271, "INCLINATION": 99.3765, "RA_OF_ASC_NODE": 76.7161, "ARG_OF_PERICENTER": 287.9445, "MEAN_ANOMALY": 69.2878, "EPHEMERIS_TYPE": 0, "CLASSIFICATION_TYPE": "U", "NORAD_CAT_ID": 31979, "ELEMENT_SET_NO": 999, "REV_AT_EPOCH": 57875, "BSTAR": 0.0041113867, "MEAN_MOTION_DOT": 4.527e-05, "MEAN_MOTION_DDOT": 0}, "tle": {"line1": "1 31979U 99025CPG 25344.04621736  .00004527  00000+0  41114-2 0  9991", "line2": "2 31979  99.3765  76.7161 0265927 287.9445  69.2878 13.69261173578759"}}, "geometry": {"type": "Point", "coordinates": [86.91826233778315, -41.822519188394715]}}, {"type": "Feature", "properties": {"norad_id": 31980, "name": "FENGYUN 1C DEB", "group": "fengyun-1c-debris", "lat": 54.512502840286466, "lon": -97.86508622796546, "alt_km": 815.3107593508294, "timestamp": "2025-12-11T18:59:46.358725+00:00", "meta": {"OBJECT_NAME": "FENGYUN 1C DEB", "OBJECT_ID": "1999-025CPH", "EPOCH": "2025-12-10T00:56:19.802976", "MEAN_MOTION": 13.32145981, "ECCENTRICITY": 0.04283586, "INCLINATION": 97.6124, "RA_OF_ASC_NODE": 70.0196, "ARG_OF_PERICENTER": 119.8874, "MEAN_ANOMALY": 244.5532, "EPHEMERIS_TYPE": 0, "CLASSIFICATION_TYPE": "U", "NORAD_CAT_ID": 31980, "ELEMENT_SET_NO": 999, "REV_AT_EPOCH": 89634, "BSTAR": 0.00076274833, "MEAN_MOTION_DOT": 5.91e-06, "MEAN_MOTION_DDOT": 0}, "tle": {"line1": "1 31980U 99025CPH 25344.03911809  .00000591  00000+0  76275-3 0  9999", "line2": "2 31980  97.6124  70.0196 0428358 119.8874 244.5532 13.32145981896345"}}, "geometry": {"type": "Point", "coordinates": [-97.86508622796546, 54.512502840286466]}}, {"type": "Feature", "properties": {"norad_id": 31984, "name": "FENGYUN 1C DEB", "group": "fengyun-1c-debris", "lat": 13.928252150914217, "lon": 172.29464238089548, "alt_km": 796.8998062801675, "timestamp": "2025-12-11T18:59:46.358737+00:00", "meta": {"OBJECT_NAME": "FENGYUN 1C DEB", "OBJECT_ID": "1999-025CPM", "EPOCH": "2025-12-02T19:53:15.322848", "MEAN_MOTION": 14.2293256, "ECCENTRICITY": 0.00625309, "INCLINATION": 98.5577, "RA_OF_ASC_NODE": 341.445, "ARG_OF_PERICENTER": 256.5759, "MEAN_ANOMALY": 102.8445, "EPHEMERIS_TYPE": 0, "CLASSIFICATION_TYPE": "U", "NORAD_CAT_ID": 31984, "ELEMENT_SET_NO": 999, "REV_AT_EPOCH": 94232, "BSTAR": 0.00049073387, "MEAN_MOTION_DOT": 1.083e-05, "MEAN_MOTION_DDOT": 0}, "tle": {"line1": "1 31984U 99025CPM 25336.82864957  .00001083  00000+0  49073-3 0  9995", "line2": "2 31984  98.5577 341.4450 0062530 256.5759 102.8445 14.22932560942322"}}, "geometry": {"type": "Point", "coordinates": [172.29464238089548, 13.928252150914217]}}]}